QIANFAN-57              
1 62787U 25016C   25322.90236532  .00000104  00000+0  14271-3 0  9990
2 62787  88.9766 105.6572 0001407 128.2408 231.8870 13.50980475 43984
QIANFAN-58              
1 62788U 25016D   25322.87354176  .00000102  00000+0  13945-3 0  9997
2 62788  88.9735 105.4992 0015051  56.9290 303.3304 13.50980190 44028
QIANFAN-59              
1 62789U 25016E   25322.89823123  .00000098  00000+0  13325-3 0  9999
2 62789  88.9759 105.5646 0015508  60.2214 300.0477 13.50979640 44026
QIANFAN-60              
1 62790U 25016F   25322.93134084  .00000041  00000+0  44306-4 0  9999
2 62790  88.9740 105.5372 0016961  56.5501 303.7269 13.50976514 44010
QIANFAN-61              
1 62791U 25016G   25322.89000333  .00000094  00000+0  12712-3 0  9997
2 62791  88.9807 105.6882 0015904  56.3216 303.9449 13.50973613 44029
QIANFAN-62              
1 62792U 25016H   25322.89419533  .00000100  00000+0  13530-3 0  9991
2 62792  88.9754 105.5691 0017283  56.2961 303.9834 13.50983513 44013
QIANFAN-63              
1 62793U 25016J   25322.91888846  .00000100  00000+0  13542-3 0  9995
2 62793  88.9761 105.5165 0017434  61.2306 299.0594 13.50976654 44055
QIANFAN-64              
1 62794U 25016K   25322.88590984  .00000103  00000+0  14039-3 0  9990
2 62794  88.9747 105.4971 0015249  55.2531 305.0053 13.50978479 44043
